OBJECT_NAME,OBJECT_ID,EPOCH,MEAN_MOTION,ECCENTRICITY,INCLINATION,RA_OF_ASC_NODE,ARG_OF_PERICENTER,MEAN_ANOMALY,EPHEMERIS_TYPE,CLASSIFICATION_TYPE,NORAD_CAT_ID,ELEMENT_SET_NO,REV_AT_EPOCH,BSTAR,MEAN_MOTION_DOT,MEAN_MOTION_DDOT
HAWK-5A,2022-057AB,2026-06-19T10:19:31.040832,15.51460047,.00054423,97.6614,329.4222,72.1777,288.0067,0,U,52757,999,22669,.28529381E-3,.16754E-3,0
HAWK-6B,2023-011A,2026-06-19T13:03:05.760288,15.22951247,.00019849,40.5001,338.3260,16.5240,343.5634,0,U,55324,999,18820,.16535221E-3,.3771E-4,0
HAWK-6C,2023-011C,2026-06-19T13:02:08.902176,15.22947527,.00028289,40.4989,335.1686,5.8533,354.2309,0,U,55326,999,18821,.15655514E-3,.3559E-4,0
HAWK-6A,2023-011D,2026-06-19T13:02:13.390656,15.22949471,.00025294,40.5002,336.7933,0.3312,359.7499,0,U,55327,999,18821,.16538148E-3,.3771E-4,0
HAWK-7A,2023-054P,2026-06-19T09:40:51.333024,15.27379375,.0004175,97.2695,57.6840,52.2797,307.8821,0,U,56191,999,17736,.16663943E-3,.4395E-4,0
HAWK-7B,2023-054R,2026-06-19T09:40:44.329440,15.27378167,.00036271,97.2720,55.9487,64.7556,295.4059,0,U,56193,999,17736,.17725201E-3,.4679E-4,0
HAWK-7C,2023-054Y,2026-06-19T09:40:34.535136,15.27379568,.00035553,97.2697,56.7167,56.0832,304.0745,0,U,56200,999,17736,.17542209E-3,.4631E-4,0
