HAWK-5A                 
1 52757U 22057AB  26170.43022038  .00016754  00000+0  28529-3 0  9991
2 52757  97.6614 329.4222 0005442  72.1777 288.0067 15.51460047226690
HAWK-6B                 
1 55324U 23011A   26170.54381667  .00003771  00000+0  16535-3 0  9992
2 55324  40.5001 338.3260 0001984  16.5240 343.5634 15.22951247188201
HAWK-6C                 
1 55326U 23011C   26170.54315859  .00003559  00000+0  15656-3 0  9991
2 55326  40.4989 335.1686 0002828   5.8533 354.2309 15.22947527188213
HAWK-6A                 
1 55327U 23011D   26170.54321054  .00003771  00000+0  16538-3 0  9992
2 55327  40.5002 336.7933 0002529   0.3312 359.7499 15.22949471188216
HAWK-7A                 
1 56191U 23054P   26170.40337191  .00004395  00000+0  16664-3 0  9996
2 56191  97.2695  57.6840 0004175  52.2797 307.8821 15.27379375177363
HAWK-7B                 
1 56193U 23054R   26170.40329085  .00004679  00000+0  17725-3 0  9995
2 56193  97.2720  55.9487 0003627  64.7556 295.4059 15.27378167177367
HAWK-7C                 
1 56200U 23054Y   26170.40317749  .00004631  00000+0  17542-3 0  9993
2 56200  97.2697  56.7167 0003555  56.0832 304.0745 15.27379568177369
